NORAD_CAT_ID,OBJECT_NAME,OBJECT_TYPE,EPOCH,MEAN_MOTION,ECCENTRICITY,INCLINATION,RA_OF_ASC_NODE,ARG_OF_PERICENTER,MEAN_ANOMALY,BSTAR,MEAN_MOTION_DOT,MEAN_MOTION_DDOT,TLE_LINE0,TLE_LINE1,TLE_LINE2,SEMIMAJOR_AXIS,PERIOD,APOGEE,PERIGEE,DECAYED
54775.0,STARLINK-5465,PAYLOAD,2023-06-06 17:21:44,15.08849212,6.62e-05,53.2168,244.4025,90.5616,269.5452,0.00012843,1.757e-05,0.0,0 STARLINK-5465,1 54775U 22175T   23157.72342726  .00001757  00000-0  12843-3 0  9997,2 54775  53.2168 244.4025 0000662  90.5616 269.5452 15.08849212 25748,6917.852,95.437,540.175,539.259,0.0
54775.0,STARLINK-5465,PAYLOAD,2023-06-07 09:15:36,15.08835288,7.18e-05,53.2164,241.4304,100.7059,259.4014,4.1005e-05,3.65e-06,0.0,0 STARLINK-5465,1 54775U 22175T   23158.38583944  .00000365  00000-0  41005-4 0  9996,2 54775  53.2164 241.4304 0000718 100.7059 259.4014 15.08835288 25849,6917.895,95.438,540.256,539.263,0.0
54775.0,STARLINK-5465,PAYLOAD,2023-06-08 10:41:46,15.0884098,7.23e-05,53.2162,236.6735,86.7166,273.3909,-5.2415e-06,-3.71e-06,0.0,0 STARLINK-5465,1 54775U 22175T   23159.44567900 -.00000371  00000-0 -52415-5 0  9995,2 54775  53.2162 236.6735 0000723  86.7166 273.3909 15.08840980 28160,6917.877,95.437,540.243,539.242,0.0
54775.0,STARLINK-5465,PAYLOAD,2023-06-08 15:27:55,15.08846647,7.32e-05,53.2162,235.7812,89.3024,270.8052,3.7485e-05,3.09e-06,0.0,0 STARLINK-5465,1 54775U 22175T   23159.64439386  .00000309  00000-0  37485-4 0  9991,2 54775  53.2162 235.7812 0000732  89.3024 270.8052 15.08846647 26039,6917.86,95.437,540.231,539.219,0.0
54775.0,STARLINK-5465,PAYLOAD,2023-06-09 04:11:01,15.08835177,5.87e-05,53.2161,233.4053,89.3732,270.7328,9.3356e-05,1.198e-05,0.0,0 STARLINK-5465,1 54775U 22175T   23160.17431978  .00001198  00000-0  93356-4 0  9996,2 54775  53.2161 233.4053 0000587  89.3732 270.7328 15.08835177 26114,6917.895,95.438,540.166,539.354,0.0
54775.0,STARLINK-5465,PAYLOAD,2023-06-09 12:07:56,15.08837839,5.91e-05,53.2159,231.9175,92.9797,267.1263,6.1877e-05,6.97e-06,0.0,0 STARLINK-5465,1 54775U 22175T   23160.50551968  .00000697  00000-0  61877-4 0  9991,2 54775  53.2159 231.9175 0000591  92.9797 267.1263 15.08837839 28325,6917.887,95.438,540.161,539.343,0.0
54775.0,STARLINK-5465,PAYLOAD,2023-06-10 13:34:07,15.08838875,8.7e-05,53.2159,227.1588,124.683,235.4244,6.8521e-06,-1.79e-06,0.0,0 STARLINK-5465,1 54775U 22175T   23161.56536188 -.00000179  00000-0  68521-5 0  9995,2 54775  53.2159 227.1588 0000870 124.6830 235.4244 15.08838875 28486,6917.884,95.438,540.351,539.147,0.0
54775.0,STARLINK-5465,PAYLOAD,2023-06-10 21:31:02,15.0884587,6.33e-05,53.2159,225.6717,84.7092,275.3973,-0.00010504,-1.959e-05,0.0,0 STARLINK-5465,1 54775U 22175T   23161.89656087 -.00001959  00000-0 -10504-3 0  9996,2 54775  53.2159 225.6717 0000633  84.7092 275.3973 15.08845870 28537,6917.862,95.437,540.165,539.29,0.0
54775.0,STARLINK-5465,PAYLOAD,2023-06-11 13:24:54,15.08839776,7.28e-05,53.2156,222.6978,78.2559,281.8515,4.5427e-05,4.35e-06,0.0,0 STARLINK-5465,1 54775U 22175T   23162.55896350  .00000435  00000-0  45427-4 0  9998,2 54775  53.2156 222.6978 0000728  78.2559 281.8515 15.08839776 28634,6917.881,95.438,540.25,539.242,0.0
54775.0,STARLINK-5465,PAYLOAD,2023-06-11 21:21:49,15.08841733,7.12e-05,53.2159,221.2111,77.1908,282.9163,7.8379e-05,9.6e-06,0.0,0 STARLINK-5465,1 54775U 22175T   23162.89016132  .00000960  00000-0  78379-4 0  9992,2 54775  53.2159 221.2111 0000712  77.1908 282.9163 15.08841733 28682,6917.875,95.437,540.233,539.248,0.0
54775.0,STARLINK-5465,PAYLOAD,2023-06-12 10:04:54,15.08845677,6.91e-05,53.2155,218.8315,77.8511,282.2559,0.00014416,2.008e-05,0.0,0 STARLINK-5465,1 54775U 22175T   23163.42007622  .00002008  00000-0  14416-3 0  9992,2 54775  53.2155 218.8315 0000691  77.8511 282.2559 15.08845677 28761,6917.863,95.437,540.206,539.25,0.0
54775.0,STARLINK-5465,PAYLOAD,2023-06-12 21:12:36,15.08842312,6.71e-05,53.2156,216.7502,72.5594,287.5471,8.8619e-05,1.123e-05,0.0,0 STARLINK-5465,1 54775U 22175T   23163.88375927  .00001123  00000-0  88619-4 0  9992,2 54775  53.2156 216.7502 0000671  72.5594 287.5471 15.08842312 28830,6917.873,95.437,540.203,539.274,0.0
54775.0,STARLINK-5465,PAYLOAD,2023-06-13 06:44:56,15.08831275,7.09e-05,53.2157,214.9664,72.7769,287.33,1.4076e-05,-6.4e-07,0.0,0 STARLINK-5465,1 54775U 22175T   23164.28120896 -.00000064  00000-0  14076-4 0  9990,2 54775  53.2157 214.9664 0000709  72.7769 287.3300 15.08831275 28899,6917.907,95.438,540.263,539.282,0.0
54775.0,STARLINK-5465,PAYLOAD,2023-06-13 09:55:42,15.0883347,7.26e-05,53.2158,214.3717,75.0205,285.0868,2.5861e-05,1.24e-06,0.0,0 STARLINK-5465,1 54775U 22175T   23164.41368755  .00000124  00000-0  25861-4 0  9993,2 54775  53.2158 214.3717 0000726  75.0205 285.0868 15.08833470 26759,6917.9,95.438,540.268,539.263,0.0
54775.0,STARLINK-5465,PAYLOAD,2023-06-14 03:24:56,15.08843553,7.84e-05,53.2167,211.0987,90.5087,269.5995,-1.9494e-05,-5.98e-06,0.0,0 STARLINK-5465,1 54775U 22175T   23165.14232268 -.00000598  00000-0 -19494-4 0  9995,2 54775  53.2167 211.0987 0000784  90.5087 269.5995 15.08843553 26869,6917.87,95.437,540.277,539.192,0.0
54775.0,STARLINK-5465,PAYLOAD,2023-06-15 09:37:16,15.08834636,7.22e-05,53.2162,205.4514,84.952,275.1555,4.9065e-05,4.93e-06,0.0,0 STARLINK-5465,1 54775U 22175T   23166.40088702  .00000493  00000-0  49065-4 0  9996,2 54775  53.2162 205.4514 0000722  84.9520 275.1555 15.08834636 27057,6917.897,95.438,540.261,539.262,0.0
54775.0,STARLINK-5465,PAYLOAD,2023-06-16 09:28:03,15.08843719,7.14e-05,53.2159,200.9902,78.6092,281.4981,7.871e-05,9.65e-06,0.0,0 STARLINK-5465,1 54775U 22175T   23167.39448177  .00000965  00000-0  78710-4 0  9994,2 54775  53.2159 200.9902 0000714  78.6092 281.4981 15.08843719 27201,6917.869,95.437,540.228,539.24,0.0
54775.0,STARLINK-5465,PAYLOAD,2023-06-16 11:03:26,15.08844977,7.25e-05,53.2159,200.6926,77.942,282.1654,8.7524e-05,1.106e-05,0.0,0 STARLINK-5465,1 54775U 22175T   23167.46072072  .00001106  00000-0  87524-4 0  9990,2 54775  53.2159 200.6926 0000725  77.9420 282.1654 15.08844977 29375,6917.865,95.437,540.232,539.229,0.0
54775.0,STARLINK-5465,PAYLOAD,2023-06-16 19:00:22,15.0883608,7.31e-05,53.216,199.2057,78.0759,282.0315,6.6608e-05,7.72e-06,0.0,0 STARLINK-5465,1 54775U 22175T   23167.79192615  .00000772  00000-0  66608-4 0  9990,2 54775  53.2160 199.2057 0000731  78.0759 282.0315 15.08836080 29424,6917.892,95.438,540.263,539.252,0.0
54775.0,STARLINK-5465,PAYLOAD,2023-06-16 22:11:08,15.08835194,7.4e-05,53.216,198.6111,79.6042,280.5034,5.5666e-05,5.98e-06,0.0,0 STARLINK-5465,1 54775U 22175T   23167.92440734  .00000598  00000-0  55666-4 0  9991,2 54775  53.2160 198.6111 0000740  79.6042 280.5034 15.08835194 27288,6917.895,95.438,540.272,539.248,0.0
54775.0,STARLINK-5465,PAYLOAD,2023-06-17 10:54:13,15.08837006,7.44e-05,53.216,196.2321,77.9114,282.1962,3.5234e-05,2.73e-06,0.0,0 STARLINK-5465,1 54775U 22175T   23168.45432827  .00000273  00000-0  35234-4 0  9993,2 54775  53.2160 196.2321 0000744  77.9114 282.1962 15.08837006 29521,6917.89,95.438,540.269,539.24,0.0
54775.0,STARLINK-5465,PAYLOAD,2023-06-17 18:51:09,15.08835202,7.28e-05,53.2161,194.7457,83.1796,276.9279,3.1847e-05,2.19e-06,0.0,0 STARLINK-5465,1 54775U 22175T   23168.78553010  .00000219  00000-0  31847-4 0  9993,2 54775  53.2161 194.7457 0000728  83.1796 276.9279 15.08835202 29575,6917.895,95.438,540.264,539.256,0.0
54775.0,STARLINK-5465,PAYLOAD,2023-06-18 10:45:01,15.08838073,7.49e-05,53.216,191.7716,79.4615,280.6461,-1.0755e-05,-4.59e-06,0.0,0 STARLINK-5465,1 54775U 22175T   23169.44793076 -.00000459  00000-0 -10755-4 0  9998,2 54775  53.2160 191.7716 0000749  79.4615 280.6461 15.08838073 29675,6917.886,95.438,540.269,539.233,0.0
54775.0,STARLINK-5465,PAYLOAD,2023-06-18 18:41:56,15.08839981,7.6e-05,53.2161,190.2847,78.5811,281.5266,2.1751e-05,5.9e-07,0.0,0 STARLINK-5465,1 54775U 22175T   23169.77912860  .00000059  00000-0  21751-4 0  9990,2 54775  53.2161 190.2847 0000760  78.5811 281.5266 15.08839981 29724,6917.88,95.438,540.271,539.22,0.0
54775.0,STARLINK-5465,PAYLOAD,2023-06-19 01:03:29,15.0883828,7.39e-05,53.2158,189.0944,79.6352,280.4723,7.7159e-05,9.4e-06,0.0,0 STARLINK-5465,1 54775U 22175T   23170.04408795  .00000940  00000-0  77159-4 0  9991,2 54775  53.2158 189.0944 0000739  79.6352 280.4723 15.08838280 29763,6917.886,95.438,540.262,539.239,0.0
54775.0,STARLINK-5465,PAYLOAD,2023-06-19 18:32:43,15.08840252,7.21e-05,53.2156,185.8235,77.8756,282.2317,6.686e-05,7.77e-06,0.0,0 STARLINK-5465,1 54775U 22175T   23170.77272728  .00000777  00000-0  66860-4 0  9991,2 54775  53.2156 185.8235 0000721  77.8756 282.2317 15.08840252 29870,6917.88,95.438,540.243,539.246,0.0
54775.0,STARLINK-5465,PAYLOAD,2023-06-20 00:54:16,15.08837968,7.42e-05,53.2155,184.6341,77.7165,282.391,6.6608e-05,7.73e-06,0.0,0 STARLINK-5465,1 54775U 22175T   23171.03768893  .00000773  00000-0  66608-4 0  9990,2 54775  53.2155 184.6341 0000742  77.7165 282.3910 15.08837968 27755,6917.887,95.438,540.265,539.238,0.0
54775.0,STARLINK-5465,PAYLOAD,2023-06-20 07:15:48,15.08838638,7.47e-05,53.2155,183.4446,77.0803,283.0273,6.6953e-05,7.78e-06,0.0,0 STARLINK-5465,1 54775U 22175T   23171.30264875  .00000778  00000-0  66953-4 0  9999,2 54775  53.2155 183.4446 0000747  77.0803 283.0273 15.08838638 29954,6917.885,95.438,540.266,539.233,0.0
54775.0,STARLINK-5465,PAYLOAD,2023-06-21 07:06:35,15.08841548,7.73e-05,53.2156,178.9838,79.5818,280.5261,2.6902e-05,1.41e-06,0.0,0 STARLINK-5465,1 54775U 22175T   23172.29624778  .00000141  00000-0  26902-4 0  9994,2 54775  53.2156 178.9838 0000773  79.5818 280.5261 15.08841548 27941,6917.876,95.437,540.275,539.206,0.0
54775.0,STARLINK-5465,PAYLOAD,2023-06-22 10:08:09,15.08837123,8.3e-05,53.216,173.9294,79.3684,280.7401,2.0135e-05,3.3e-07,0.0,0 STARLINK-5465,1 54775U 22175T   23173.42233150  .00000033  00000-0  20135-4 0  9992,2 54775  53.2160 173.9294 0000830  79.3684 280.7401 15.08837123 28112,6917.889,95.438,540.328,539.18,0.0
